[{"OBJECT_NAME":"SL-8 R/B","OBJECT_ID":"1979-089B","EPOCH":"2026-04-01T05:13:42.691008","MEAN_MOTION":14.42365273,"ECCENTRICITY":0.0016631,"INCLINATION":74.0695,"RA_OF_ASC_NODE":49.3379,"ARG_OF_PERICENTER":218.9996,"MEAN_ANOMALY":140.9963,"EPHEMERIS_TYPE":0,"CLASSIFICATION_TYPE":"U","NORAD_CAT_ID":11574,"ELEMENT_SET_NO":999,"REV_AT_EPOCH":43935,"BSTAR":0.00011624,"MEAN_MOTION_DOT":3.58e-6,"MEAN_MOTION_DDOT":0},{"OBJECT_NAME":"SL-14 R/B","OBJECT_ID":"1980-005B","EPOCH":"2026-04-01T05:03:21.214944","MEAN_MOTION":14.90956128,"ECCENTRICITY":0.0017249,"INCLINATION":82.5109,"RA_OF_ASC_NODE":285.8675,"ARG_OF_PERICENTER":88.5351,"MEAN_ANOMALY":271.7844,"EPHEMERIS_TYPE":0,"CLASSIFICATION_TYPE":"U","NORAD_CAT_ID":11672,"ELEMENT_SET_NO":999,"REV_AT_EPOCH":47984,"BSTAR":6.2072e-5,"MEAN_MOTION_DOT":6.4e-6,"MEAN_MOTION_DDOT":0},{"OBJECT_NAME":"SL-8 R/B","OBJECT_ID":"1981-003B","EPOCH":"2026-03-31T23:32:25.852128","MEAN_MOTION":15.11985247,"ECCENTRICITY":0.0260486,"INCLINATION":82.9324,"RA_OF_ASC_NODE":269.3943,"ARG_OF_PERICENTER":101.1533,"MEAN_ANOMALY":261.9103,"EPHEMERIS_TYPE":0,"CLASSIFICATION_TYPE":"U","NORAD_CAT_ID":12139,"ELEMENT_SET_NO":999,"REV_AT_EPOCH":31804,"BSTAR":0.0006819,"MEAN_MOTION_DOT":0.00027339,"MEAN_MOTION_DDOT":0},{"OBJECT_NAME":"SL-3 R/B","OBJECT_ID":"1981-046B","EPOCH":"2026-04-01T04:02:01.660992","MEAN_MOTION":15.42554276,"ECCENTRICITY":0.0018127,"INCLINATION":81.228,"RA_OF_ASC_NODE":262.7354,"ARG_OF_PERICENTER":302.3757,"MEAN_ANOMALY":57.5732,"EPHEMERIS_TYPE":0,"CLASSIFICATION_TYPE":"U","NORAD_CAT_ID":12465,"ELEMENT_SET_NO":999,"REV_AT_EPOCH":44189,"BSTAR":0.0002813,"MEAN_MOTION_DOT":0.00012318,"MEAN_MOTION_DDOT":0},{"OBJECT_NAME":"SL-3 R/B","OBJECT_ID":"1981-103B","EPOCH":"2026-04-01T04:45:10.846080","MEAN_MOTION":15.21646308,"ECCENTRICITY":0.0012975,"INCLINATION":81.1615,"RA_OF_ASC_NODE":187.0283,"ARG_OF_PERICENTER":206.3203,"MEAN_ANOMALY":153.7371,"EPHEMERIS_TYPE":0,"CLASSIFICATION_TYPE":"U","NORAD_CAT_ID":12904,"ELEMENT_SET_NO":999,"REV_AT_EPOCH":97665,"BSTAR":0.00026281,"MEAN_MOTION_DOT":5.975e-5,"MEAN_MOTION_DDOT":0},{"OBJECT_NAME":"SL-3 R/B","OBJECT_ID":"1982-013B","EPOCH":"2026-04-01T04:43:53.671008","MEAN_MOTION":15.22216857,"ECCENTRICITY":0.00236,"INCLINATION":81.1728,"RA_OF_ASC_NODE":134.3873,"ARG_OF_PERICENTER":103.8765,"MEAN_ANOMALY":256.5095,"EPHEMERIS_TYPE":0,"CLASSIFICATION_TYPE":"U","NORAD_CAT_ID":13068,"ELEMENT_SET_NO":999,"REV_AT_EPOCH":40777,"BSTAR":0.00019345,"MEAN_MOTION_DOT":4.504e-5,"MEAN_MOTION_DDOT":0},{"OBJECT_NAME":"SL-3 R/B","OBJECT_ID":"1982-039B","EPOCH":"2026-04-01T04:26:17.769696","MEAN_MOTION":15.10208562,"ECCENTRICITY":0.0028396,"INCLINATION":81.1566,"RA_OF_ASC_NODE":190.023,"ARG_OF_PERICENTER":249.7648,"MEAN_ANOMALY":110.0524,"EPHEMERIS_TYPE":0,"CLASSIFICATION_TYPE":"U","NORAD_CAT_ID":13154,"ELEMENT_SET_NO":999,"REV_AT_EPOCH":38503,"BSTAR":0.00016742,"MEAN_MOTION_DOT":2.783e-5,"MEAN_MOTION_DDOT":0},{"OBJECT_NAME":"SL-3 R/B","OBJECT_ID":"1982-079B","EPOCH":"2026-04-01T04:09:32.614560","MEAN_MOTION":15.2509796,"ECCENTRICITY":0.0025507,"INCLINATION":81.1481,"RA_OF_ASC_NODE":166.5291,"ARG_OF_PERICENTER":90.9528,"MEAN_ANOMALY":269.4628,"EPHEMERIS_TYPE":0,"CLASSIFICATION_TYPE":"U","NORAD_CAT_ID":13403,"ELEMENT_SET_NO":999,"REV_AT_EPOCH":38112,"BSTAR":0.00020954,"MEAN_MOTION_DOT":5.318e-5,"MEAN_MOTION_DDOT":0},{"OBJECT_NAME":"SL-14 R/B","OBJECT_ID":"1982-092B","EPOCH":"2026-04-01T04:37:09.016608","MEAN_MOTION":14.86686449,"ECCENTRICITY":0.0019235,"INCLINATION":82.5654,"RA_OF_ASC_NODE":120.3475,"ARG_OF_PERICENTER":223.2555,"MEAN_ANOMALY":205.7478,"EPHEMERIS_TYPE":0,"CLASSIFICATION_TYPE":"U","NORAD_CAT_ID":13553,"ELEMENT_SET_NO":999,"REV_AT_EPOCH":33227,"BSTAR":4.8728e-5,"MEAN_MOTION_DOT":4.59e-6,"MEAN_MOTION_DDOT":0},{"OBJECT_NAME":"SL-3 R/B","OBJECT_ID":"1983-010B","EPOCH":"2026-04-01T03:28:14.512224","MEAN_MOTION":15.47119307,"ECCENTRICITY":0.0015685,"INCLINATION":81.1046,"RA_OF_ASC_NODE":334.7046,"ARG_OF_PERICENTER":333.7155,"MEAN_ANOMALY":26.3292,"EPHEMERIS_TYPE":0,"CLASSIFICATION_TYPE":"U","NORAD_CAT_ID":13819,"ELEMENT_SET_NO":999,"REV_AT_EPOCH":36141,"BSTAR":0.00036108,"MEAN_MOTION_DOT":0.00018435,"MEAN_MOTION_DDOT":0},{"OBJECT_NAME":"SL-3 R/B","OBJECT_ID":"1983-075B","EPOCH":"2026-04-01T04:31:24.684960","MEAN_MOTION":15.3895547,"ECCENTRICITY":0.0022584,"INCLINATION":97.6132,"RA_OF_ASC_NODE":96.6268,"ARG_OF_PERICENTER":145.1026,"MEAN_ANOMALY":215.1705,"EPHEMERIS_TYPE":0,"CLASSIFICATION_TYPE":"U","NORAD_CAT_ID":14208,"ELEMENT_SET_NO":999,"REV_AT_EPOCH":33361,"BSTAR":0.00029206,"MEAN_MOTION_DOT":0.00011274,"MEAN_MOTION_DDOT":0},{"OBJECT_NAME":"COSMOS 1536","OBJECT_ID":"1984-013A","EPOCH":"2026-04-01T01:03:49.513248","MEAN_MOTION":15.24139012,"ECCENTRICITY":0.0013745,"INCLINATION":82.5412,"RA_OF_ASC_NODE":85.617,"ARG_OF_PERICENTER":196.073,"MEAN_ANOMALY":164.0073,"EPHEMERIS_TYPE":0,"CLASSIFICATION_TYPE":"U","NORAD_CAT_ID":14699,"ELEMENT_SET_NO":999,"REV_AT_EPOCH":27602,"BSTAR":0.00037651,"MEAN_MOTION_DOT":9.212e-5,"MEAN_MOTION_DDOT":0},{"OBJECT_NAME":"SL-14 R/B","OBJECT_ID":"1984-027B","EPOCH":"2026-04-01T02:47:31.610112","MEAN_MOTION":14.86001037,"ECCENTRICITY":0.0016499,"INCLINATION":82.5423,"RA_OF_ASC_NODE":223.978,"ARG_OF_PERICENTER":258.2067,"MEAN_ANOMALY":101.7299,"EPHEMERIS_TYPE":0,"CLASSIFICATION_TYPE":"U","NORAD_CAT_ID":14820,"ELEMENT_SET_NO":999,"REV_AT_EPOCH":25096,"BSTAR":7.8345e-5,"MEAN_MOTION_DOT":7.1e-6,"MEAN_MOTION_DDOT":0},{"OBJECT_NAME":"SL-8 R/B","OBJECT_ID":"1985-006B","EPOCH":"2026-04-01T02:01:06.087936","MEAN_MOTION":14.37799653,"ECCENTRICITY":0.0017559,"INCLINATION":74.0457,"RA_OF_ASC_NODE":219.9384,"ARG_OF_PERICENTER":131.1527,"MEAN_ANOMALY":41.9277,"EPHEMERIS_TYPE":0,"CLASSIFICATION_TYPE":"U","NORAD_CAT_ID":15483,"ELEMENT_SET_NO":999,"REV_AT_EPOCH":15724,"BSTAR":0.00013453,"MEAN_MOTION_DOT":3.8e-6,"MEAN_MOTION_DDOT":0},{"OBJECT_NAME":"SL-12 R/B(2)","OBJECT_ID":"1985-042D","EPOCH":"2026-04-01T05:05:58.006752","MEAN_MOTION":14.21988785,"ECCENTRICITY":0.0032845,"INCLINATION":71.1095,"RA_OF_ASC_NODE":40.142,"ARG_OF_PERICENTER":90.7588,"MEAN_ANOMALY":9.8322,"EPHEMERIS_TYPE":0,"CLASSIFICATION_TYPE":"U","NORAD_CAT_ID":15772,"ELEMENT_SET_NO":999,"REV_AT_EPOCH":11759,"BSTAR":6.8375e-5,"MEAN_MOTION_DOT":1.04e-6,"MEAN_MOTION_DDOT":0},{"OBJECT_NAME":"SL-14 R/B","OBJECT_ID":"1985-069B","EPOCH":"2026-04-01T03:52:42.621024","MEAN_MOTION":14.86457284,"ECCENTRICITY":0.0020191,"INCLINATION":82.5306,"RA_OF_ASC_NODE":3.8083,"ARG_OF_PERICENTER":115.8298,"MEAN_ANOMALY":244.5004,"EPHEMERIS_TYPE":0,"CLASSIFICATION_TYPE":"U","NORAD_CAT_ID":15945,"ELEMENT_SET_NO":999,"REV_AT_EPOCH":17617,"BSTAR":5.8222e-5,"MEAN_MOTION_DOT":5.41e-6,"MEAN_MOTION_DDOT":0},{"OBJECT_NAME":"SL-16 R/B","OBJECT_ID":"1985-097B","EPOCH":"2026-04-01T05:35:44.139264","MEAN_MOTION":14.16603107,"ECCENTRICITY":0.0009358,"INCLINATION":71.0007,"RA_OF_ASC_NODE":93.0911,"ARG_OF_PERICENTER":233.2792,"MEAN_ANOMALY":206.0373,"EPHEMERIS_TYPE":0,"CLASSIFICATION_TYPE":"U","NORAD_CAT_ID":16182,"ELEMENT_SET_NO":999,"REV_AT_EPOCH":9042,"BSTAR":-6.8593e-5,"MEAN_MOTION_DOT":-1.85e-6,"MEAN_MOTION_DDOT":0}]
